IRIDIUM 39              
1 25042U 97069D   25354.88454422  .00000483  00000+0  12039-3 0  9992
2 25042  86.3923 131.1385 0019116  47.7544 312.5278 14.49515918476009
IRIDIUM 38              
1 25043U 97069E   25354.90874574  .00000346  00000+0  10728-3 0  9991
2 25043  86.3975 154.6725 0002165 145.9486 214.1851 14.38320995472790
IRIDIUM 42              
1 25077U 97077A   25354.86639441  .00000327  00000+0  10457-3 0  9992
2 25077  86.3980 161.0880 0001600 111.9108 248.2259 14.36538466467992
IRIDIUM 44              
1 25078U 97077B   25354.80287416  .00000283  00000+0  82900-4 0  9992
2 25078  86.3970 142.5527 0003676 112.3180 247.8409 14.40437811470560
IRIDIUM 45              
1 25104U 97082A   25354.90823686  .00026249  00000+0  73656-3 0  9991
2 25104  86.3544 316.6505 0096712 350.2681   9.6690 15.31757958480520
IRIDIUM 24              
1 25105U 97082B   25354.53361444  .00000326  00000+0  92667-4 0  9992
2 25105  86.3906   1.2447 0011515 171.0807 189.0600 14.42334400470079
IRIDIUM 51              
1 25262U 98018A   25354.90499212  .00077036  00000+0  78026-3 0  9996
2 25262  86.3731 322.0456 0046069 238.3725 121.3043 15.63622751475923
IRIDIUM 57              
1 25273U 98019B   25354.92461112  .00000267  00000+0  84893-4 0  9991
2 25273  86.3952  66.9571 0002180  98.4080 261.7364 14.36056814451588
